[{"OBJECT_NAME":"YAOGAN-36 03B","OBJECT_ID":"2022-160C","EPOCH":"2026-03-09T22:41:52.530432","MEAN_MOTION":15.19636671,"ECCENTRICITY":0.00094652,"INCLINATION":34.992,"RA_OF_ASC_NODE":267.4774,"ARG_OF_PERICENTER":342.1848,"MEAN_ANOMALY":17.8533,"EPHEMERIS_TYPE":0,"CLASSIFICATION_TYPE":"U","NORAD_CAT_ID":54374,"ELEMENT_SET_NO":999,"REV_AT_EPOCH":18261,"BSTAR":0.00040085509,"MEAN_MOTION_DOT":8.731e-5,"MEAN_MOTION_DDOT":0},{"OBJECT_NAME":"SITRO-AIS-62","OBJECT_ID":"2025-313BA","EPOCH":"2026-03-09T22:28:04.503072","MEAN_MOTION":15.2313984,"ECCENTRICITY":0.00083903,"INCLINATION":97.4013,"RA_OF_ASC_NODE":145.3565,"ARG_OF_PERICENTER":355.0929,"MEAN_ANOMALY":5.0224,"EPHEMERIS_TYPE":0,"CLASSIFICATION_TYPE":"U","NORAD_CAT_ID":67296,"ELEMENT_SET_NO":999,"REV_AT_EPOCH":1086,"BSTAR":0.00055522855,"MEAN_MOTION_DOT":0.00013063,"MEAN_MOTION_DDOT":0}]
